<?xml version="1.0" encoding="UTF-8"?>
<ndm xmlns:xsi="http://www.w3.org/2001/XMLSchema-instance" xsi:noNamespaceSchemaLocation="https://sanaregistry.org/r/ndmxml_unqualified/ndmxml-2.0.0-master-2.0.xsd">
<omm id="CCSDS_OMM_VERS" version="2.0">
<header><CREATION_DATE/><ORIGINATOR/></header><body><segment><metadata><OBJECT_NAME>ORBCOMM FM33</OBJECT_NAME><OBJECT_ID>1999-065D</OBJECT_ID><CENTER_NAME>EARTH</CENTER_NAME><REF_FRAME>TEME</REF_FRAME><TIME_SYSTEM>UTC</TIME_SYSTEM><MEAN_ELEMENT_THEORY>SGP4</MEAN_ELEMENT_THEORY></metadata><data><meanElements><EPOCH>2025-10-23T13:37:37.149312</EPOCH><MEAN_MOTION>14.40324625</MEAN_MOTION><ECCENTRICITY>.00076474</ECCENTRICITY><INCLINATION>45.0272</INCLINATION><RA_OF_ASC_NODE>108.4640</RA_OF_ASC_NODE><ARG_OF_PERICENTER>351.2890</ARG_OF_PERICENTER><MEAN_ANOMALY>8.7825</MEAN_ANOMALY></meanElements><tleParameters><EPHEMERIS_TYPE>0</EPHEMERIS_TYPE><CLASSIFICATION_TYPE>U</CLASSIFICATION_TYPE><NORAD_CAT_ID>25983</NORAD_CAT_ID><ELEMENT_SET_NO>999</ELEMENT_SET_NO><REV_AT_EPOCH>35457</REV_AT_EPOCH><BSTAR>.57009562E-3</BSTAR><MEAN_MOTION_DOT>.1682E-4</MEAN_MOTION_DOT><MEAN_MOTION_DDOT>0</MEAN_MOTION_DDOT></tleParameters></data></segment></body></omm>
<omm id="CCSDS_OMM_VERS" version="2.0">
<header><CREATION_DATE/><ORIGINATOR/></header><body><segment><metadata><OBJECT_NAME>ORBCOMM FM36</OBJECT_NAME><OBJECT_ID>1999-065E</OBJECT_ID><CENTER_NAME>EARTH</CENTER_NAME><REF_FRAME>TEME</REF_FRAME><TIME_SYSTEM>UTC</TIME_SYSTEM><MEAN_ELEMENT_THEORY>SGP4</MEAN_ELEMENT_THEORY></metadata><data><meanElements><EPOCH>2025-10-23T10:06:10.045440</EPOCH><MEAN_MOTION>14.38496181</MEAN_MOTION><ECCENTRICITY>.00026291</ECCENTRICITY><INCLINATION>45.0380</INCLINATION><RA_OF_ASC_NODE>203.0473</RA_OF_ASC_NODE><ARG_OF_PERICENTER>257.5414</ARG_OF_PERICENTER><MEAN_ANOMALY>102.5140</MEAN_ANOMALY></meanElements><tleParameters><EPHEMERIS_TYPE>0</EPHEMERIS_TYPE><CLASSIFICATION_TYPE>U</CLASSIFICATION_TYPE><NORAD_CAT_ID>25984</NORAD_CAT_ID><ELEMENT_SET_NO>999</ELEMENT_SET_NO><REV_AT_EPOCH>35288</REV_AT_EPOCH><BSTAR>.62351031E-3</BSTAR><MEAN_MOTION_DOT>.178E-4</MEAN_MOTION_DOT><MEAN_MOTION_DDOT>0</MEAN_MOTION_DDOT></tleParameters></data></segment></body></omm>
<omm id="CCSDS_OMM_VERS" version="2.0">
<header><CREATION_DATE/><ORIGINATOR/></header><body><segment><metadata><OBJECT_NAME>ORBCOMM FM35</OBJECT_NAME><OBJECT_ID>1999-065F</OBJECT_ID><CENTER_NAME>EARTH</CENTER_NAME><REF_FRAME>TEME</REF_FRAME><TIME_SYSTEM>UTC</TIME_SYSTEM><MEAN_ELEMENT_THEORY>SGP4</MEAN_ELEMENT_THEORY></metadata><data><meanElements><EPOCH>2025-10-23T11:51:21.311424</EPOCH><MEAN_MOTION>14.37428412</MEAN_MOTION><ECCENTRICITY>.00051691</ECCENTRICITY><INCLINATION>45.0385</INCLINATION><RA_OF_ASC_NODE>208.7681</RA_OF_ASC_NODE><ARG_OF_PERICENTER>324.5796</ARG_OF_PERICENTER><MEAN_ANOMALY>35.4708</MEAN_ANOMALY></meanElements><tleParameters><EPHEMERIS_TYPE>0</EPHEMERIS_TYPE><CLASSIFICATION_TYPE>U</CLASSIFICATION_TYPE><NORAD_CAT_ID>25985</NORAD_CAT_ID><ELEMENT_SET_NO>999</ELEMENT_SET_NO><REV_AT_EPOCH>35324</REV_AT_EPOCH><BSTAR>.59241317E-3</BSTAR><MEAN_MOTION_DOT>.1646E-4</MEAN_MOTION_DOT><MEAN_MOTION_DDOT>0</MEAN_MOTION_DDOT></tleParameters></data></segment></body></omm>
<omm id="CCSDS_OMM_VERS" version="2.0">
<header><CREATION_DATE/><ORIGINATOR/></header><body><segment><metadata><OBJECT_NAME>ORBCOMM FM34</OBJECT_NAME><OBJECT_ID>1999-065G</OBJECT_ID><CENTER_NAME>EARTH</CENTER_NAME><REF_FRAME>TEME</REF_FRAME><TIME_SYSTEM>UTC</TIME_SYSTEM><MEAN_ELEMENT_THEORY>SGP4</MEAN_ELEMENT_THEORY></metadata><data><meanElements><EPOCH>2025-10-23T11:01:29.743392</EPOCH><MEAN_MOTION>14.37405407</MEAN_MOTION><ECCENTRICITY>.00046026</ECCENTRICITY><INCLINATION>45.0383</INCLINATION><RA_OF_ASC_NODE>209.3882</RA_OF_ASC_NODE><ARG_OF_PERICENTER>286.4546</ARG_OF_PERICENTER><MEAN_ANOMALY>73.5796</MEAN_ANOMALY></meanElements><tleParameters><EPHEMERIS_TYPE>0</EPHEMERIS_TYPE><CLASSIFICATION_TYPE>U</CLASSIFICATION_TYPE><NORAD_CAT_ID>25986</NORAD_CAT_ID><ELEMENT_SET_NO>999</ELEMENT_SET_NO><REV_AT_EPOCH>35335</REV_AT_EPOCH><BSTAR>.56276568E-3</BSTAR><MEAN_MOTION_DOT>.1555E-4</MEAN_MOTION_DOT><MEAN_MOTION_DDOT>0</MEAN_MOTION_DDOT></tleParameters></data></segment></body></omm>
<omm id="CCSDS_OMM_VERS" version="2.0">
<header><CREATION_DATE/><ORIGINATOR/></header><body><segment><metadata><OBJECT_NAME>ORBCOMM FM38</OBJECT_NAME><OBJECT_ID>2008-031A</OBJECT_ID><CENTER_NAME>EARTH</CENTER_NAME><REF_FRAME>TEME</REF_FRAME><TIME_SYSTEM>UTC</TIME_SYSTEM><MEAN_ELEMENT_THEORY>SGP4</MEAN_ELEMENT_THEORY></metadata><data><meanElements><EPOCH>2025-10-23T14:55:03.167616</EPOCH><MEAN_MOTION>14.81925390</MEAN_MOTION><ECCENTRICITY>.0005553</ECCENTRICITY><INCLINATION>48.4395</INCLINATION><RA_OF_ASC_NODE>62.9408</RA_OF_ASC_NODE><ARG_OF_PERICENTER>237.5146</ARG_OF_PERICENTER><MEAN_ANOMALY>122.5233</MEAN_ANOMALY></meanElements><tleParameters><EPHEMERIS_TYPE>0</EPHEMERIS_TYPE><CLASSIFICATION_TYPE>U</CLASSIFICATION_TYPE><NORAD_CAT_ID>33060</NORAD_CAT_ID><ELEMENT_SET_NO>999</ELEMENT_SET_NO><REV_AT_EPOCH>93379</REV_AT_EPOCH><BSTAR>.42013457E-3</BSTAR><MEAN_MOTION_DOT>.315E-4</MEAN_MOTION_DOT><MEAN_MOTION_DDOT>0</MEAN_MOTION_DDOT></tleParameters></data></segment></body></omm>
<omm id="CCSDS_OMM_VERS" version="2.0">
<header><CREATION_DATE/><ORIGINATOR/></header><body><segment><metadata><OBJECT_NAME>ORBCOMM FM41</OBJECT_NAME><OBJECT_ID>2008-031B</OBJECT_ID><CENTER_NAME>EARTH</CENTER_NAME><REF_FRAME>TEME</REF_FRAME><TIME_SYSTEM>UTC</TIME_SYSTEM><MEAN_ELEMENT_THEORY>SGP4</MEAN_ELEMENT_THEORY></metadata><data><meanElements><EPOCH>2025-10-23T15:56:16.617408</EPOCH><MEAN_MOTION>14.81490408</MEAN_MOTION><ECCENTRICITY>.00046495</ECCENTRICITY><INCLINATION>48.4428</INCLINATION><RA_OF_ASC_NODE>70.9676</RA_OF_ASC_NODE><ARG_OF_PERICENTER>223.6205</ARG_OF_PERICENTER><MEAN_ANOMALY>149.7755</MEAN_ANOMALY></meanElements><tleParameters><EPHEMERIS_TYPE>0</EPHEMERIS_TYPE><CLASSIFICATION_TYPE>U</CLASSIFICATION_TYPE><NORAD_CAT_ID>33061</NORAD_CAT_ID><ELEMENT_SET_NO>999</ELEMENT_SET_NO><REV_AT_EPOCH>93328</REV_AT_EPOCH><BSTAR>.4247005E-3</BSTAR><MEAN_MOTION_DOT>.3152E-4</MEAN_MOTION_DOT><MEAN_MOTION_DDOT>0</MEAN_MOTION_DDOT></tleParameters></data></segment></body></omm>
<omm id="CCSDS_OMM_VERS" version="2.0">
<header><CREATION_DATE/><ORIGINATOR/></header><body><segment><metadata><OBJECT_NAME>ORBCOMM FM29</OBJECT_NAME><OBJECT_ID>2008-031C</OBJECT_ID><CENTER_NAME>EARTH</CENTER_NAME><REF_FRAME>TEME</REF_FRAME><TIME_SYSTEM>UTC</TIME_SYSTEM><MEAN_ELEMENT_THEORY>SGP4</MEAN_ELEMENT_THEORY></metadata><data><meanElements><EPOCH>2025-10-23T14:04:50.491200</EPOCH><MEAN_MOTION>14.81616186</MEAN_MOTION><ECCENTRICITY>.00063098</ECCENTRICITY><INCLINATION>48.4375</INCLINATION><RA_OF_ASC_NODE>78.9804</RA_OF_ASC_NODE><ARG_OF_PERICENTER>221.1239</ARG_OF_PERICENTER><MEAN_ANOMALY>234.9870</MEAN_ANOMALY></meanElements><tleParameters><EPHEMERIS_TYPE>0</EPHEMERIS_TYPE><CLASSIFICATION_TYPE>U</CLASSIFICATION_TYPE><NORAD_CAT_ID>33062</NORAD_CAT_ID><ELEMENT_SET_NO>999</ELEMENT_SET_NO><REV_AT_EPOCH>93318</REV_AT_EPOCH><BSTAR>.465378E-3</BSTAR><MEAN_MOTION_DOT>.3485E-4</MEAN_MOTION_DOT><MEAN_MOTION_DDOT>0</MEAN_MOTION_DDOT></tleParameters></data></segment></body></omm>
<omm id="CCSDS_OMM_VERS" version="2.0">
<header><CREATION_DATE/><ORIGINATOR/></header><body><segment><metadata><OBJECT_NAME>ORBCOMM FM39</OBJECT_NAME><OBJECT_ID>2008-031D</OBJECT_ID><CENTER_NAME>EARTH</CENTER_NAME><REF_FRAME>TEME</REF_FRAME><TIME_SYSTEM>UTC</TIME_SYSTEM><MEAN_ELEMENT_THEORY>SGP4</MEAN_ELEMENT_THEORY></metadata><data><meanElements><EPOCH>2025-10-23T14:13:18.345216</EPOCH><MEAN_MOTION>14.80096919</MEAN_MOTION><ECCENTRICITY>.00070151</ECCENTRICITY><INCLINATION>48.4380</INCLINATION><RA_OF_ASC_NODE>104.6609</RA_OF_ASC_NODE><ARG_OF_PERICENTER>192.2421</ARG_OF_PERICENTER><MEAN_ANOMALY>167.8325</MEAN_ANOMALY></meanElements><tleParameters><EPHEMERIS_TYPE>0</EPHEMERIS_TYPE><CLASSIFICATION_TYPE>U</CLASSIFICATION_TYPE><NORAD_CAT_ID>33063</NORAD_CAT_ID><ELEMENT_SET_NO>999</ELEMENT_SET_NO><REV_AT_EPOCH>93281</REV_AT_EPOCH><BSTAR>.38849066E-3</BSTAR><MEAN_MOTION_DOT>.2766E-4</MEAN_MOTION_DOT><MEAN_MOTION_DDOT>0</MEAN_MOTION_DDOT></tleParameters></data></segment></body></omm>

</ndm>
