ORBCOMM FM33            
1 25983U 99065D   25296.56779108  .00001682  00000+0  57010-3 0  9995
2 25983  45.0272 108.4640 0007647 351.2890   8.7825 14.40324625354579
ORBCOMM FM36            
1 25984U 99065E   25296.42094960  .00001780  00000+0  62351-3 0  9990
2 25984  45.0380 203.0473 0002629 257.5414 102.5140 14.38496181352880
ORBCOMM FM35            
1 25985U 99065F   25296.49399666  .00001646  00000+0  59241-3 0  9994
2 25985  45.0385 208.7681 0005169 324.5796  35.4708 14.37428412353245
ORBCOMM FM34            
1 25986U 99065G   25296.45937203  .00001555  00000+0  56277-3 0  9991
2 25986  45.0383 209.3882 0004602 286.4546  73.5796 14.37405407353355
ORBCOMM FM38            
1 33060U 08031A   25296.62156444  .00003150  00000+0  42013-3 0  9991
2 33060  48.4395  62.9408 0005553 237.5146 122.5233 14.81925390933793
ORBCOMM FM41            
1 33061U 08031B   25296.66408122  .00003152  00000+0  42470-3 0  9998
2 33061  48.4428  70.9676 0004649 223.6205 149.7755 14.81490408933285
ORBCOMM FM29            
1 33062U 08031C   25296.58669550  .00003485  00000+0  46538-3 0  9992
2 33062  48.4375  78.9804 0006309 221.1239 234.9870 14.81616186933180
ORBCOMM FM39            
1 33063U 08031D   25296.59257344  .00002766  00000+0  38849-3 0  9995
2 33063  48.4380 104.6609 0007015 192.2421 167.8325 14.80096919932816
